25117,ORBCOMM FM05,1997,99.9,45.0,-,45.02,Inactive,1,LEO,Eastern Range Airspace,ORBCOMM,Commercial,Communications,Pegasus,1 25117U 97084F   23264.79810488  .00002136  00000+0  69685-3 0  9994,2 25117  45.0149 162.1639 0002989 299.3259  60.7292 14.41397048348941,14.41397048,0.0002989,LEO
25118,ORBCOMM FM06,1997,99.91,45.0,+,45.01,Active,1,LEO,Eastern Range Airspace,ORBCOMM,Commercial,Communications,Pegasus,1 25118U 97084G   23265.13019285  .00002325  00000+0  75545-3 0  9992,2 25118  45.0144 160.7300 0002453 317.5942 195.9685 14.41333025349936,14.41333025,0.0002453,LEO
25119,ORBCOMM FM07,1997,99.91,45.0,-,45.01,Inactive,1,LEO,Eastern Range Airspace,ORBCOMM,Commercial,Communications,Pegasus,1 25119U 97084H   23265.08145799  .00002222  00000+0  72481-3 0  9999,2 25119  45.0139 161.3931 0003316 285.1377  74.9106 14.41280371349916,14.41280371,0.0003316,LEO
25158,ORBCOMM FM03,1998,100.61,-1.0,-,107.98,Inactive,0,LEO,USA,ORBCOMM,Unknown,Unknown,Taurus,1 25158U 98007B   23264.96954720  .00001585  00000+0  63913-3 0  9997,2 25158 107.9829 275.9874 0049800 275.0261  84.5194 14.31262896333344,14.31262896,0.00498,LEO
25159,ORBCOMM FM04,1998,100.59,45.0,+,107.98,Active,1,LEO,USA,ORBCOMM,Commercial,Communications,Taurus,1 25159U 98007C   23265.27992220  .00001544  00000+0  62199-3 0  9990,2 25159 107.9811 279.4044 0045301 272.5109  87.0843 14.31539755333529,14.31539755,0.0045301,LEO
25413,ORBCOMM FM17,1998,100.54,-1.0,-,45.0,Inactive,0,LEO,Eastern Range Airspace,ORBCOMM,Unknown,Unknown,Pegasus,1 25413U 98046A   23264.63918745  .00001362  00000+0  55128-3 0  9997,2 25413  44.9970   5.2737 0003174 250.7330 109.3172 14.32322066312119,14.32322066,0.0003174,LEO
25414,ORBCOMM FM18,1998,100.36,45.0,-,44.99,Inactive,1,LEO,Eastern Range Airspace,ORBCOMM,Commercial,Communications,Pegasus,1 25414U 98046B   23264.77900552  .00001750  00000+0  66051-3 0  9998,2 25414  44.9948 296.3817 0005421 308.6473  51.3889 14.34797397313022,14.34797397,0.0005421,LEO
25415,ORBCOMM FM19,1998,100.37,45.0,+,45.0,Active,1,LEO,Eastern Range Airspace,ORBCOMM,Commercial,Communications,Pegasus,1 25415U 98046C   23264.82316378  .00001554  00000+0  59337-3 0  9993,2 25415  44.9957 297.3000 0004585 297.2218 232.2823 14.34676641312999,14.34676641,0.0004585,LEO
